{
  "links" : {
    "next" : "https://api.nasa.gov/neo/rest/v1/feed?start_date=2004-10-23&end_date=2004-10-23&detailed=true&api_key=t0TVs3DtDT2H8Oy2Zy8m2eVrNsAVKAexjcZXUckd",
    "prev" : "https://api.nasa.gov/neo/rest/v1/feed?start_date=2004-10-21&end_date=2004-10-21&detailed=true&api_key=t0TVs3DtDT2H8Oy2Zy8m2eVrNsAVKAexjcZXUckd",
    "self" : "https://api.nasa.gov/neo/rest/v1/feed?start_date=2004-10-22&end_date=2004-10-22&detailed=true&api_key=t0TVs3DtDT2H8Oy2Zy8m2eVrNsAVKAexjcZXUckd"
  },
  "element_count" : 6,
  "near_earth_objects" : {
    "2004-10-22" : [ {
      "links" : {
        "self" : "https://api.nasa.gov/neo/rest/v1/neo/2162015?api_key=t0TVs3DtDT2H8Oy2Zy8m2eVrNsAVKAexjcZXUckd"
      },
      "neo_reference_id" : "2162015",
      "name" : "162015 (1994 TF2)",
      "nasa_jpl_url" : "http://ssd.jpl.nasa.gov/sbdb.cgi?sstr=2162015",
      "absolute_magnitude_h" : 19.2,
      "estimated_diameter" : {
        "kilometers" : {
          "estimated_diameter_min" : 0.3841978911,
          "estimated_diameter_max" : 0.8590926012
        },
        "meters" : {
          "estimated_diameter_min" : 384.1978910643,
          "estimated_diameter_max" : 859.0926012318
        },
        "miles" : {
          "estimated_diameter_min" : 0.2387294278,
          "estimated_diameter_max" : 0.5338152287
        },
        "feet" : {
          "estimated_diameter_min" : 1260.4918089193,
          "estimated_diameter_max" : 2818.5453698252
        }
      },
      "is_potentially_hazardous_asteroid" : false,
      "close_approach_data" : [ {
        "close_approach_date" : "2004-10-22",
        "epoch_date_close_approach" : 1098428400000,
        "relative_velocity" : {
          "kilometers_per_second" : "18.8197743236",
          "kilometers_per_hour" : "67751.187565113",
          "miles_per_hour" : "42097.9531845559"
        },
        "miss_distance" : {
          "astronomical" : "0.4529726664",
          "lunar" : "176.2063751221",
          "kilometers" : "67763752",
          "miles" : "42106440"
        },
        "orbiting_body" : "Earth"
      } ],
      "orbital_data" : {
        "orbit_id" : "17",
        "orbit_determination_date" : "2017-04-06 09:26:40",
        "orbit_uncertainty" : "1",
        "minimum_orbit_intersection" : ".254796",
        "jupiter_tisserand_invariant" : "6.006",
        "epoch_osculation" : "2458000.5",
        "eccentricity" : ".2839999908687965",
        "semi_major_axis" : ".9931395616890283",
        "inclination" : "23.75271164772924",
        "ascending_node_longitude" : "175.2474080536218",
        "orbital_period" : "361.5046187285948",
        "perihelion_distance" : ".7110879352379037",
        "perihelion_argument" : "349.7534831072251",
        "aphelion_distance" : "1.275191188140153",
        "perihelion_time" : "2458084.182992026030",
        "mean_anomaly" : "276.6653050372549",
        "mean_motion" : ".9958378990180361",
        "equinox" : "J2000"
      }
    }, {
      "links" : {
        "self" : "https://api.nasa.gov/neo/rest/v1/neo/2189552?api_key=t0TVs3DtDT2H8Oy2Zy8m2eVrNsAVKAexjcZXUckd"
      },
      "neo_reference_id" : "2189552",
      "name" : "189552 (2000 RL77)",
      "nasa_jpl_url" : "http://ssd.jpl.nasa.gov/sbdb.cgi?sstr=2189552",
      "absolute_magnitude_h" : 16.8,
      "estimated_diameter" : {
        "kilometers" : {
          "estimated_diameter_min" : 1.1602590821,
          "estimated_diameter_max" : 2.5944181791
        },
        "meters" : {
          "estimated_diameter_min" : 1160.2590820944,
          "estimated_diameter_max" : 2594.4181790745
        },
        "miles" : {
          "estimated_diameter_min" : 0.7209513461,
          "estimated_diameter_max" : 1.6120962183
        },
        "feet" : {
          "estimated_diameter_min" : 3806.6244068985,
          "estimated_diameter_max" : 8511.8709386348
        }
      },
      "is_potentially_hazardous_asteroid" : false,
      "close_approach_data" : [ {
        "close_approach_date" : "2004-10-22",
        "epoch_date_close_approach" : 1098428400000,
        "relative_velocity" : {
          "kilometers_per_second" : "15.8112781089",
          "kilometers_per_hour" : "56920.601192071",
          "miles_per_hour" : "35368.2480018177"
        },
        "miss_distance" : {
          "astronomical" : "0.3835377648",
          "lunar" : "149.1961975098",
          "kilometers" : "57376436",
          "miles" : "35652064"
        },
        "orbiting_body" : "Earth"
      } ],
      "orbital_data" : {
        "orbit_id" : "104",
        "orbit_determination_date" : "2017-04-06 09:25:45",
        "orbit_uncertainty" : "0",
        "minimum_orbit_intersection" : ".330655",
        "jupiter_tisserand_invariant" : "3.058",
        "epoch_osculation" : "2458000.5",
        "eccentricity" : ".535090737095207",
        "semi_major_axis" : "2.556047337774199",
        "inclination" : "30.28596652706441",
        "ascending_node_longitude" : "194.893525160316",
        "orbital_period" : "1492.628624227286",
        "perihelion_distance" : "1.188330083754361",
        "perihelion_argument" : "234.4493274974534",
        "aphelion_distance" : "3.923764591794037",
        "perihelion_time" : "2457834.780004215848",
        "mean_anomaly" : "39.96921773705073",
        "mean_motion" : ".241185244713076",
        "equinox" : "J2000"
      }
    }, {
      "links" : {
        "self" : "https://api.nasa.gov/neo/rest/v1/neo/2333480?api_key=t0TVs3DtDT2H8Oy2Zy8m2eVrNsAVKAexjcZXUckd"
      },
      "neo_reference_id" : "2333480",
      "name" : "333480 (2004 TC10)",
      "nasa_jpl_url" : "http://ssd.jpl.nasa.gov/sbdb.cgi?sstr=2333480",
      "absolute_magnitude_h" : 20.2,
      "estimated_diameter" : {
        "kilometers" : {
          "estimated_diameter_min" : 0.2424124811,
          "estimated_diameter_max" : 0.5420507863
        },
        "meters" : {
          "estimated_diameter_min" : 242.4124811008,
          "estimated_diameter_max" : 542.0507863358
        },
        "miles" : {
          "estimated_diameter_min" : 0.1506280858,
          "estimated_diameter_max" : 0.3368146392
        },
        "feet" : {
          "estimated_diameter_min" : 795.3165644948,
          "estimated_diameter_max" : 1778.3819018419
        }
      },
      "is_potentially_hazardous_asteroid" : false,
      "close_approach_data" : [ {
        "close_approach_date" : "2004-10-22",
        "epoch_date_close_approach" : 1098428400000,
        "relative_velocity" : {
          "kilometers_per_second" : "10.3080474817",
          "kilometers_per_hour" : "37108.9709340516",
          "miles_per_hour" : "23058.0714117722"
        },
        "miss_distance" : {
          "astronomical" : "0.3351182477",
          "lunar" : "130.3609924316",
          "kilometers" : "50132976",
          "miles" : "31151186"
        },
        "orbiting_body" : "Earth"
      } ],
      "orbital_data" : {
        "orbit_id" : "29",
        "orbit_determination_date" : "2017-09-18 06:55:34",
        "orbit_uncertainty" : "0",
        "minimum_orbit_intersection" : ".139163",
        "jupiter_tisserand_invariant" : "5.466",
        "epoch_osculation" : "2458000.5",
        "eccentricity" : ".4072315514275167",
        "semi_major_axis" : "1.120538537282404",
        "inclination" : "14.10491473084526",
        "ascending_node_longitude" : "16.4603583636333",
        "orbital_period" : "433.2500512737769",
        "perihelion_distance" : ".6642198903105706",
        "perihelion_argument" : "135.9943885891668",
        "aphelion_distance" : "1.576857184254238",
        "perihelion_time" : "2458175.045563395433",
        "mean_anomaly" : "214.9650423869225",
        "mean_motion" : ".830928926474635",
        "equinox" : "J2000"
      }
    } ]
  }
}